[{"OBJECT_NAME":"STARLINK-5465","OBJECT_ID":"2022-175T","EPOCH":"2026-03-09T08:58:18.069600","MEAN_MOTION":15.08841142,"ECCENTRICITY":0.00014543,"INCLINATION":53.2191,"RA_OF_ASC_NODE":45.3741,"ARG_OF_PERICENTER":96.9856,"MEAN_ANOMALY":263.1301,"EPHEMERIS_TYPE":0,"CLASSIFICATION_TYPE":"U","NORAD_CAT_ID":54775,"ELEMENT_SET_NO":999,"REV_AT_EPOCH":17987,"BSTAR":-0.00013390248,"MEAN_MOTION_DOT":-2.418e-5,"MEAN_MOTION_DDOT":0},{"OBJECT_NAME":"JILIN-01 KUANFU 02B 2","OBJECT_ID":"2024-169B","EPOCH":"2026-03-09T21:55:18.103008","MEAN_MOTION":15.09238424,"ECCENTRICITY":0.0011661,"INCLINATION":97.5565,"RA_OF_ASC_NODE":159.2927,"ARG_OF_PERICENTER":15.7533,"MEAN_ANOMALY":344.4056,"EPHEMERIS_TYPE":0,"CLASSIFICATION_TYPE":"U","NORAD_CAT_ID":61190,"ELEMENT_SET_NO":999,"REV_AT_EPOCH":8085,"BSTAR":0.0003793675,"MEAN_MOTION_DOT":5.983e-5,"MEAN_MOTION_DDOT":0}]
